OBJECT_NAME,OBJECT_ID,EPOCH,MEAN_MOTION,ECCENTRICITY,INCLINATION,RA_OF_ASC_NODE,ARG_OF_PERICENTER,MEAN_ANOMALY,EPHEMERIS_TYPE,CLASSIFICATION_TYPE,NORAD_CAT_ID,ELEMENT_SET_NO,REV_AT_EPOCH,BSTAR,MEAN_MOTION_DOT,MEAN_MOTION_DDOT
LEMUR-2-ROUNDTRIPPER,2025-009DG,2026-07-11T18:38:43.358208,15.04195859,.0004378,97.7246,275.4244,71.1982,288.9719,0,U,62711,999,8132,.39714E-3,.5456E-4,0
LEMUR-2-MYNAMEISJEFF,2025-009DH,2026-07-11T18:36:30.871584,15.04187846,.0003769,97.7298,275.8188,105.2846,254.8796,0,U,62712,999,8132,.38945E-3,.5347E-4,0
LEMUR-2-LIA-MARTIN,2025-052AQ,2026-07-11T15:47:15.253152,14.98011715,.0005406,97.6875,84.7066,98.5199,261.6637,0,U,63248,999,7234,.27062E-3,.3139E-4,0
LEMUR-2-DELOITTE-1,2025-052BB,2026-07-11T16:54:27.985248,14.97765900,.0002557,97.6886,85.0832,69.2852,290.8644,0,U,63259,999,7236,.19414E-3,.222E-4,0
LEMUR-2-EMERSONROSE,2025-052BD,2026-07-11T15:43:49.963296,14.99270270,.0002812,97.6885,85.6401,66.1030,294.0487,0,U,63261,999,7240,.25458E-3,.3048E-4,0
LEMUR-2-MARACHE-FRAN,2025-052BE,2026-07-11T16:20:01.347360,15.00302061,.0004815,97.6854,86.0285,268.4363,91.6309,0,U,63262,999,7243,.16161E-3,.1966E-4,0
LEMUR-2-UNTITLED-SC,2025-061A,2026-07-11T21:07:57.539712,15.13633127,.0018865,97.5648,168.0663,174.3063,185.8386,0,U,63351,999,7132,.13423E-3,.2354E-4,0
LEMUR-2-ESPERANZA,2025-061B,2026-07-11T20:32:46.533696,15.13740291,.0018479,97.5655,168.1412,173.5696,186.5776,0,U,63352,999,7132,.10385E-3,.1811E-4,0
LEMUR-2-NEUROSPICY,2025-061E,2026-07-11T19:50:11.234688,15.14366383,.0017115,97.5633,168.3643,168.1718,191.9919,0,U,63355,999,7134,.1287E-3,.2301E-4,0
LEMUR-2-KREMPEL-BRO1,2025-061G,2026-07-11T19:53:38.033088,15.14757546,.0019304,97.5620,168.5836,158.3242,201.8812,0,U,63357,999,7136,.12394E-3,.224E-4,0
LEMUR-2-LANGER2SPACE,2025-061H,2026-07-11T11:08:03.117408,15.14450351,.00170352,97.5624,168.0248,167.8120,192.3528,0,U,63358,999,7129,.124128E-3,.2222E-4,0
LEMUR-2-KRISH,2025-135AK,2026-07-11T19:36:33.698880,14.96434298,.0001627,97.7770,307.5283,96.8966,263.2441,0,U,64561,999,5760,.2393E-3,.2656E-4,0
LEMUR-2-HUBBLE-4,2025-135AP,2026-07-11T20:36:29.353248,14.93679245,.0002416,97.7716,306.4778,171.5660,188.5601,0,U,64565,999,5755,.11146E-3,.1122E-4,0
LEMUR-2-HUBBLE-5,2025-135BT,2026-07-11T20:50:54.646656,14.94207446,.0004168,97.7737,307.1531,248.9556,111.1218,0,U,64840,999,5759,.11467E-3,.1172E-4,0
LEMUR-2-LUCILLE-ROSE,2025-135BV,2026-07-11T20:03:12.002976,15.00464612,.0014467,97.7712,309.0456,199.4062,160.6612,0,U,65403,999,5233,.30738E-3,.3816E-4,0
LEMUR-2-AFFIE-WAUWIE,2025-248C,2026-07-11T10:43:59.347488,15.28146061,.00086364,45.3896,343.4521,232.3245,127.6861,0,U,66295,999,3830,.45936216E-3,.12568E-3,0
LEMUR-2-STAS-GORBUK,2025-276W,2026-07-11T18:15:12.904992,15.19636638,.000345,97.4242,265.8836,265.6939,94.3901,0,U,66686,999,3414,.16302E-3,.3406E-4,0
LEMUR-2-TEODOR,2025-276DG,2026-07-11T17:12:59.330304,15.21313893,.0002273,97.4147,266.1085,90.9117,269.2380,0,U,66768,999,3417,.14384E-3,.3149E-4,0
LEMUR-2-CELIJO-SB-PK,2025-276DW,2026-07-11T17:12:00.870336,15.00264436,.000717,97.5201,262.6848,72.7067,287.4941,0,U,66781,999,2630,.27784E-3,.3423E-4,0
LEMUR-2-FINNIAN,2025-276DX,2026-07-10T21:18:04.448736,15.00584478,.00084915,97.5322,262.1410,17.3643,342.7870,0,U,66782,999,2355,.14532687E-3,.1778E-4,0
